[{"OBJECT_NAME":"OBJECT H","OBJECT_ID":"2024-205H","EPOCH":"2026-03-09T23:10:36.271776","MEAN_MOTION":15.29110994,"ECCENTRICITY":0.00105089,"INCLINATION":97.4168,"RA_OF_ASC_NODE":147.1265,"ARG_OF_PERICENTER":38.7838,"MEAN_ANOMALY":321.4154,"EPHEMERIS_TYPE":0,"CLASSIFICATION_TYPE":"U","NORAD_CAT_ID":61901,"ELEMENT_SET_NO":999,"REV_AT_EPOCH":7354,"BSTAR":0.00059497566,"MEAN_MOTION_DOT":0.00016783,"MEAN_MOTION_DDOT":0},{"OBJECT_NAME":"STARLINK-33640","OBJECT_ID":"2025-063R","EPOCH":"2026-03-09T23:12:48.162240","MEAN_MOTION":15.30224928,"ECCENTRICITY":0.00014669,"INCLINATION":53.1593,"RA_OF_ASC_NODE":51.0475,"ARG_OF_PERICENTER":94.1768,"MEAN_ANOMALY":265.94,"EPHEMERIS_TYPE":0,"CLASSIFICATION_TYPE":"U","NORAD_CAT_ID":63378,"ELEMENT_SET_NO":999,"REV_AT_EPOCH":5480,"BSTAR":0.0014810129,"MEAN_MOTION_DOT":0.00043797,"MEAN_MOTION_DDOT":0}]
